NORAD_CAT_ID,OBJECT_NAME,OBJECT_TYPE,EPOCH,MEAN_MOTION,ECCENTRICITY,INCLINATION,RA_OF_ASC_NODE,ARG_OF_PERICENTER,MEAN_ANOMALY,BSTAR,MEAN_MOTION_DOT,MEAN_MOTION_DDOT,TLE_LINE0,TLE_LINE1,TLE_LINE2,SEMIMAJOR_AXIS,PERIOD,APOGEE,PERIGEE,DECAYED
49148.0,STARLINK-3048,PAYLOAD,2022-04-06 04:00:00,14.96744278,0.0003097,69.998,287.9724,280.6256,33.0489,-0.0044692,-0.00050912,0.0,0 STARLINK-3048,1 49148U 21082U   22096.16667824 -.00050912  00000-0 -44692-2 0  9994,2 49148  69.9980 287.9724 0003097 280.6256  33.0489 14.96744278 32897,6955.101,96.209,579.12,574.812,0.0
49148.0,STARLINK-3048,PAYLOAD,2022-04-06 12:00:00,14.96717049,0.0003057,69.9984,287.134,274.8412,34.3918,0.0027165,0.00031141,0.0,0 STARLINK-3048,1 49148U 21082U   22096.50001157  .00031141  00000-0  27165-2 0  9990,2 49148  69.9984 287.1340 0003057 274.8412  34.3918 14.96717049 32945,6955.185,96.211,579.1759999999998,574.924,0.0
49148.0,STARLINK-3048,PAYLOAD,2022-04-06 14:00:01,14.96742393,0.0003091,69.9985,286.9243,275.4756,122.6398,-0.0012484,-0.00014361,0.0,0 STARLINK-3048,1 49148U 21082U   22096.58334491 -.00014361  00000-0 -12484-2 0  9993,2 49148  69.9985 286.9243 0003091 275.4756 122.6398 14.96742393  3582,6955.107,96.209,579.122,574.822,0.0
49148.0,STARLINK-3048,PAYLOAD,2022-04-06 22:00:00,14.96717134,0.0003179,69.9986,286.0857,281.3525,112.3384,0.0019899,0.0002276,0.0,0 STARLINK-3048,1 49148U 21082U   22096.91667824  .00022760  00000-0  19899-2 0  9996,2 49148  69.9986 286.0857 0003179 281.3525 112.3384 14.96717134  3599,6955.185,96.211,579.261,574.839,0.0
49148.0,STARLINK-3048,PAYLOAD,2022-04-07 04:00:00,14.96755929,0.0003206,69.9982,285.4568,279.2955,21.0608,-0.0080013,-0.00090591,0.0,0 STARLINK-3048,1 49148U 21082U   22097.16667824 -.00090591  00000-0 -80013-2 0  9999,2 49148  69.9982 285.4568 0003206 279.2955  21.0608 14.96755929 33043,6955.065,96.208,579.16,574.7,0.0
49148.0,STARLINK-3048,PAYLOAD,2022-04-07 14:00:01,14.96726344,0.0003263,69.9987,284.4088,274.4804,110.3073,-0.0016219,-0.00018612,0.0,0 STARLINK-3048,1 49148U 21082U   22097.58334491 -.00018612  00000-0 -16219-2 0  9997,2 49148  69.9987 284.4088 0003263 274.4804 110.3073 14.96726344  3603,6955.156,96.21,579.2909999999998,574.752,0.0
49148.0,STARLINK-3048,PAYLOAD,2022-04-07 20:00:01,14.96700849,0.0003303,69.9986,283.7799,279.2972,12.1618,0.0015967,0.00018225,0.0,0 STARLINK-3048,1 49148U 21082U   22097.83334491  .00018225  00000-0  15967-2 0  9992,2 49148  69.9986 283.7799 0003303 279.2972  12.1618 14.96700849 33145,6955.235,96.212,579.398,574.803,0.0
49148.0,STARLINK-3048,PAYLOAD,2022-04-07 22:00:00,14.96695261,0.0003323,69.9986,283.5702,279.9884,100.3567,0.0032303,0.0003706,0.0,0 STARLINK-3048,1 49148U 21082U   22097.91667824  .00037060  00000-0  32303-2 0  9991,2 49148  69.9986 283.5702 0003323 279.9884 100.3567 14.96695261  3598,6955.253000000002,96.212,579.429,574.807,0.0
49148.0,STARLINK-3048,PAYLOAD,2022-04-08 14:00:03,14.96743218,0.0003342,69.9987,281.8933,274.2413,97.3099,-0.002037,-0.00023346,0.0,0 STARLINK-3048,1 49148U 21082U   22098.58336806 -.00023346  00000-0 -20370-2 0  9993,2 49148  69.9987 281.8933 0003342 274.2413  97.3099 14.96743218  3594,6955.104,96.209,579.294,574.645,0.0
49148.0,STARLINK-3048,PAYLOAD,2022-04-08 20:00:01,14.96717435,0.0003331,69.9986,281.2645,279.1412,358.9695,0.00087496,9.938e-05,0.0,0 STARLINK-3048,1 49148U 21082U   22098.83334491  .00009938  00000-0  87496-3 0  9991,2 49148  69.9986 281.2645 0003331 279.1412 358.9695 14.96717435 33298,6955.184,96.211,579.366,574.732,0.0
49148.0,STARLINK-3048,PAYLOAD,2022-04-08 22:00:00,14.96719939,0.0003342,69.9986,281.0549,279.8546,87.1446,0.00052766,5.954e-05,0.0,0 STARLINK-3048,1 49148U 21082U   22098.91667824  .00005954  00000-0  52766-3 0  9995,2 49148  69.9986 281.0549 0003342 279.8546  87.1446 14.96719939  3648,6955.176,96.21,579.366,574.717,0.0
49148.0,STARLINK-3048,PAYLOAD,2022-04-09 04:00:00,14.96731315,0.0003263,69.9983,280.4261,277.9498,355.7102,-0.0056547,-0.0006425,0.0,0 STARLINK-3048,1 49148U 21082U   22099.16667824 -.00064250  00000-0 -56547-2 0  9999,2 49148  69.9983 280.4261 0003263 277.9498 355.7102 14.96731315 33341,6955.141,96.21,579.276,574.737,0.0
49148.0,STARLINK-3048,PAYLOAD,2022-04-09 12:00:00,14.96706165,0.0003233,69.9987,279.5878,273.3641,355.8273,0.00087685,9.957e-05,0.0,0 STARLINK-3048,1 49148U 21082U   22099.50001157  .00009957  00000-0  87685-3 0  9997,2 49148  69.9987 279.5878 0003233 273.3641 355.8273 14.96706165 33395,6955.219,96.211,579.3330000000002,574.835,0.0
49148.0,STARLINK-3048,PAYLOAD,2022-04-09 14:00:01,14.96727005,0.000328,69.9987,279.3782,274.5026,83.5675,-0.0028567,-0.00032647,0.0,0 STARLINK-3048,1 49148U 21082U   22099.58334491 -.00032647  00000-0 -28567-2 0  9992,2 49148  69.9987 279.3782 0003280 274.5026  83.5675 14.96727005  3584,6955.154,96.21,579.3009999999998,574.738,0.0
49148.0,STARLINK-3048,PAYLOAD,2022-04-09 22:00:00,14.96688599,0.0003268,69.9984,278.5398,280.2811,73.3411,0.0034747,0.0003988,0.0,0 STARLINK-3048,1 49148U 21082U   22099.91667824  .00039880  00000-0  34747-2 0  9999,2 49148  69.9984 278.5398 0003268 280.2811  73.3411 14.96688599  3586,6955.273,96.212,579.411,574.865,0.0
49148.0,STARLINK-3048,PAYLOAD,2022-04-10 14:00:01,14.96752901,0.0003267,69.9993,276.8655,274.8716,69.8171,-0.0060475,-0.00068701,0.0,0 STARLINK-3048,1 49148U 21082U   22100.58334491 -.00068701  00000-0 -60475-2 0  9999,2 49148  69.9993 276.8655 0003267 274.8716  69.8171 14.96752901  3576,6955.074000000001,96.208,579.211,574.6669999999998,0.0
49148.0,STARLINK-3048,PAYLOAD,2022-04-10 20:00:01,14.96703516,0.0003248,69.9983,276.2344,280.5179,330.8569,0.0030468,0.00034946,0.0,0 STARLINK-3048,1 49148U 21082U   22100.83334491  .00034946  00000-0  30468-2 0  9998,2 49148  69.9983 276.2344 0003248 280.5179 330.8569 14.96703516 33595,6955.227,96.211,579.351,574.8330000000002,0.0
49148.0,STARLINK-3048,PAYLOAD,2022-04-10 22:00:00,14.96705646,0.0003255,69.9982,276.0247,280.9866,59.2744,0.0034978,0.00040165,0.0,0 STARLINK-3048,1 49148U 21082U   22100.91667824  .00040165  00000-0  34978-2 0  9996,2 49148  69.9982 276.0247 0003255 280.9866  59.2744 14.96705646  3577,6955.221,96.211,579.35,574.822,0.0
49148.0,STARLINK-3048,PAYLOAD,2022-04-11 12:00:00,14.96743783,0.0003208999999999,69.9982,274.5576,273.7983,328.673,-0.0016303,-0.00018716,0.0,0 STARLINK-3048,1 49148U 21082U   22101.50001157 -.00018716  00000-0 -16303-2 0  9994,2 49148  69.9982 274.5576 0003209 273.7983 328.6730 14.96743783 33692,6955.102,96.209,579.1990000000002,574.736,0.0
49148.0,STARLINK-3048,PAYLOAD,2022-04-11 14:00:01,14.96764111,0.0003289,69.9982,274.3479,275.1385,56.2209,-0.0062767,-0.00071296,0.0,0 STARLINK-3048,1 49148U 21082U   22101.58334491 -.00071296  00000-0 -62767-2 0  9999,2 49148  69.9982 274.3479 0003289 275.1385  56.2209 14.96764111  3579,6955.0390000000025,96.208,579.192,574.617,0.0
49148.0,STARLINK-3048,PAYLOAD,2022-04-11 22:00:00,14.96689911,0.0003374,69.998,273.5094,280.3834,46.5541,0.0029805,0.00034168,0.0,0 STARLINK-3048,1 49148U 21082U   22101.91667824  .00034168  00000-0  29805-2 0  9996,2 49148  69.9980 273.5094 0003374 280.3834  46.5541 14.96689911  3567,6955.269,96.212,579.481,574.788,0.0
49148.0,STARLINK-3048,PAYLOAD,2022-04-12 14:00:01,14.96742936,0.0003363,69.999,271.8351,274.3417,43.6498,-0.0060039,-0.00068194,0.0,0 STARLINK-3048,1 49148U 21082U   22102.58334491 -.00068194  00000-0 -60039-2 0  9993,2 49148  69.9990 271.8351 0003363 274.3417  43.6498 14.96742936 33854,6955.105,96.209,579.309,574.631,0.0
49148.0,STARLINK-3048,PAYLOAD,2022-04-12 20:00:01,14.96695832,0.0003402,69.9978,271.2035,278.9699,305.699,0.0027956,0.00032038,0.0,0 STARLINK-3048,1 49148U 21082U   22102.83334491  .00032038  00000-0  27956-2 0  9998,2 49148  69.9978 271.2035 0003402 278.9699 305.6990 14.96695832 33893,6955.251,96.212,579.482,574.75,0.0
49148.0,STARLINK-3048,PAYLOAD,2022-04-12 22:00:00,14.96699289,0.0003433,69.9977,270.9939,279.2282,34.3243,0.0027626,0.0003166,0.0,0 STARLINK-3048,1 49148U 21082U   22102.91667824  .00031660  00000-0  27626-2 0  9990,2 49148  69.9977 270.9939 0003433 279.2282  34.3243 14.96699289  3565,6955.24,96.212,579.493,574.7180000000002,0.0
49148.0,STARLINK-3048,PAYLOAD,2022-04-13 12:00:00,14.96733981,0.0003416,69.9979,269.5265,272.4196,303.3287,-0.00072907,-8.431e-05,0.0,0 STARLINK-3048,1 49148U 21082U   22103.50001157 -.00008431  00000-0 -72907-3 0  9992,2 49148  69.9979 269.5265 0003416 272.4196 303.3287 14.96733981 33998,6955.1330000000025,96.209,579.374,574.622,0.0
49148.0,STARLINK-3048,PAYLOAD,2022-04-13 14:00:03,14.967456699999998,0.0003466,69.9979,269.3168,273.7113,31.05,-0.0032088,-0.00036656,0.0,0 STARLINK-3048,1 49148U 21082U   22103.58336806 -.00036656  00000-0 -32088-2 0  9997,2 49148  69.9979 269.3168 0003466 273.7113  31.0500 14.96745670  3590,6955.097,96.209,579.372,574.5509999999998,0.0
49148.0,STARLINK-3048,PAYLOAD,2022-04-13 22:00:00,14.96711983,0.0003505,69.9976,268.4783,278.6158,21.5906,0.0028301,0.0003245,0.0,0 STARLINK-3048,1 49148U 21082U   22103.91667824  .00032450  00000-0  28301-2 0  9990,2 49148  69.9976 268.4783 0003505 278.6158  21.5906 14.96711983  3580,6955.201,96.211,579.504,574.628,0.0
49148.0,STARLINK-3048,PAYLOAD,2022-04-14 14:00:01,14.96729898,0.0003426,69.998,266.8013,273.7369,17.5757,-0.0036309,-0.00041421,0.0,0 STARLINK-3048,1 49148U 21082U   22104.58334491 -.00041421  00000-0 -36309-2 0  9992,2 49148  69.9980 266.8013 0003426 273.7369  17.5757 14.96729898  3577,6955.145,96.21,579.393,574.628,0.0
49148.0,STARLINK-3048,PAYLOAD,2022-04-14 20:00:01,14.96688554,0.000341,69.9979,266.1724,278.5643,279.4172,0.0034934,0.00040096,0.0,0 STARLINK-3048,1 49148U 21082U   22104.83334491  .00040096  00000-0  34934-2 0  9997,2 49148  69.9979 266.1724 0003410 278.5643 279.4172 14.96688554 34193,6955.274,96.212,579.51,574.7669999999998,0.0
